{
    "links": {
        "self": "http://www.neowsapp.com/rest/v1/neo/3662482?api_key=iIulBulltgU6a56xZRHN4H3l9WmuAYTsLGpBGhQ2"
    },
    "id": "3662482",
    "neo_reference_id": "3662482",
    "name": "(2014 DP21)",
    "designation": "2014 DP21",
    "nasa_jpl_url": "http://ssd.jpl.nasa.gov/sbdb.cgi?sstr=3662482",
    "absolute_magnitude_h": 25.8,
    "estimated_diameter": {
        "kilometers": {
            "estimated_diameter_min": 0.0183888672,
            "estimated_diameter_max": 0.0411187571
        },
        "meters": {
            "estimated_diameter_min": 18.388867207,
            "estimated_diameter_max": 41.1187571041
        },
        "miles": {
            "estimated_diameter_min": 0.0114263088,
            "estimated_diameter_max": 0.0255500032
        },
        "feet": {
            "estimated_diameter_min": 60.3309310875,
            "estimated_diameter_max": 134.9040630575
        }
    },
    "is_potentially_hazardous_asteroid": false,
    "close_approach_data": [
        {
            "close_approach_date": "2008-01-11",
            "close_approach_date_full": "2008-Jan-11 00:53",
            "epoch_date_close_approach": 1200012780000,
            "relative_velocity": {
                "kilometers_per_second": "18.0165681996",
                "kilometers_per_hour": "64859.6455183836",
                "miles_per_hour": "40301.2614055756"
            },
            "miss_distance": {
                "astronomical": "0.3892984232",
                "lunar": "151.4370866248",
                "kilometers": "58238214.905078584",
                "miles": "36187548.7030850992"
            },
            "orbiting_body": "Earth"
        },
        {
            "close_approach_date": "2014-03-05",
            "close_approach_date_full": "2014-Mar-05 13:37",
            "epoch_date_close_approach": 1394026620000,
            "relative_velocity": {
                "kilometers_per_second": "6.3759814407",
                "kilometers_per_hour": "22953.5331865531",
                "miles_per_hour": "14262.4328847224"
            },
            "miss_distance": {
                "astronomical": "0.0273603978",
                "lunar": "10.6431947442",
                "kilometers": "4093057.233232686",
                "miles": "2543307.8299796268"
            },
            "orbiting_body": "Earth"
        },
        {
            "close_approach_date": "2017-04-08",
            "close_approach_date_full": "2017-Apr-08 20:50",
            "epoch_date_close_approach": 1491684600000,
            "relative_velocity": {
                "kilometers_per_second": "11.8987540167",
                "kilometers_per_hour": "42835.5144602309",
                "miles_per_hour": "26616.3228600251"
            },
            "miss_distance": {
                "astronomical": "0.180030099",
                "lunar": "70.031708511",
                "kilometers": "26932119.34628913",
                "miles": "16734842.956804794"
            },
            "orbiting_body": "Earth"
        },
        {
            "close_approach_date": "2020-04-23",
            "close_approach_date_full": "2020-Apr-23 15:19",
            "epoch_date_close_approach": 1587655140000,
            "relative_velocity": {
                "kilometers_per_second": "18.5102571475",
                "kilometers_per_hour": "66636.9257311606",
                "miles_per_hour": "41405.5942133425"
            },
            "miss_distance": {
                "astronomical": "0.3967496495",
                "lunar": "154.3356136555",
                "kilometers": "59352902.488446565",
                "miles": "36880183.449489997"
            },
            "orbiting_body": "Earth"
        }
    ],
    "orbital_data": {
        "orbit_id": "13",
        "orbit_determination_date": "2017-04-06 08:42:21",
        "first_observation_date": "2014-02-24",
        "last_observation_date": "2014-03-22",
        "data_arc_in_days": 26,
        "observations_used": 37,
        "orbit_uncertainty": "7",
        "minimum_orbit_intersection": ".0275807",
        "jupiter_tisserand_invariant": "3.570",
        "epoch_osculation": "2459000.5",
        "eccentricity": ".5152226769246292",
        "semi_major_axis": "2.096837235729482",
        "inclination": ".8464034240832017",
        "ascending_node_longitude": "24.53740398656942",
        "orbital_period": "1109.035651079787",
        "perihelion_distance": "1.016499142061699",
        "perihelion_argument": "134.1406686482188",
        "aphelion_distance": "3.177175329397266",
        "perihelion_time": "2458933.841184519740",
        "mean_anomaly": "21.63787390380926",
        "mean_motion": ".3246063367300179",
        "equinox": "J2000",
        "orbit_class": {
            "orbit_class_type": "APO",
            "orbit_class_description": "Near-Earth asteroid orbits which cross the Earth’s orbit similar to that of 1862 Apollo",
            "orbit_class_range": "a (semi-major axis) > 1.0 AU; q (perihelion) < 1.017 AU"
        }
    },
    "is_sentry_object": false
}